H1 CPF  1  DGF 2022 06 26 11  6771 larets     NONE      
H2   304206 5557    27944 2022 06 26 00 00 00 2022 07 03 00 00 00    30 1 1  0 0 0
H5  0.0650
H9
10 0 59761  75600.000000  0       1879820.684       5513505.157       4000060.869
10 0 59761  75630.000000  0       1886990.439       5375012.409       4180744.021
10 0 59761  75660.000000  0       1891634.778       5231060.148       4357169.589
10 0 59761  75690.000000  0       1893725.686       5081805.616       4529158.404
10 0 59761  75720.000000  0       1893238.434       4927411.498       4696535.864
10 0 59761  75750.000000  0       1890151.619       4768045.733       4859132.110
10 0 59761  75780.000000  0       1884447.210       4603881.323       5016782.187
10 0 59761  75810.000000  0       1876110.581       4435096.146       5169326.203
10 0 59761  75840.000000  0       1865130.547       4261872.752       5316609.483
10 0 59761  75870.000000  0       1851499.394       4084398.173       5458482.724
10 0 59761  75900.000000  0       1835212.907       3902863.707       5594802.138
10 0 59761  75930.000000  0       1816270.387       3717464.720       5725429.599
10 0 59761  75960.000000  0       1794674.673       3528400.420       5850232.771
10 0 59761  75990.000000  0       1770432.150       3335873.649       5969085.242
10 0 59761  76020.000000  0       1743552.755       3140090.657       6081866.647
10 0 59761  76050.000000  0       1714049.983       2941260.881       6188462.779
10 0 59761  76080.000000  0       1681940.885       2739596.716       6288765.705
10 0 59761  76110.000000  0       1647246.060       2535313.292       6382673.868
10 0 59761  76140.000000  0       1609989.648       2328628.233       6470092.182
10 0 59761  76170.000000  0       1570199.316       2119761.433       6550932.124
10 0 59761  76200.000000  0       1527906.238       1908934.815       6625111.817
10 0 59761  76230.000000  0       1483145.070       1696372.097       6692556.108
10 0 59761  76260.000000  0       1435953.926       1482298.557       6753196.635
10 0 59761  76290.000000  0       1386374.343       1266940.794       6806971.890
10 0 59761  76320.000000  0       1334451.248       1050526.492       6853827.280
10 0 59761  76350.000000  0       1280232.915        833284.185       6893715.175
10 0 59761  76380.000000  0       1223770.927        615443.022       6926594.955
10 0 59761  76410.000000  0       1165120.122        397232.524       6952433.054
10 0 59761  76440.000000  0       1104338.545        178882.353       6971202.998
10 0 59761  76470.000000  0       1041487.389        -39377.937       6982885.428
10 0 59761  76500.000000  0        976630.932       -257319.141       6987468.129
10 0 59761  76530.000000  0        909836.477       -474712.637       6984946.031
10 0 59761  76560.000000  0        841174.278       -691330.632       6975321.223
10 0 59761  76590.000000  0        770717.472       -906946.389       6958602.946
10 0 59761  76620.000000  0        698542.000      -1121334.468       6934807.594
10 0 59761  76650.000000  0        624726.525      -1334270.956       6903958.694
10 0 59761  76680.000000  0        549352.349      -1545533.707       6866086.894
10 0 59761  76710.000000  0        472503.323      -1754902.566       6821229.929
10 0 59761  76740.000000  0        394265.760      -1962159.597       6769432.590
10 0 59761  76770.000000  0        314728.334      -2167089.319       6710746.694
10 0 59761  76800.000000  0        233981.984      -2369478.927       6645231.023
10 0 59761  76830.000000  0        152119.813      -2569118.519       6572951.275
10 0 59761  76860.000000  0         69236.980      -2765801.308       6493979.994
10 0 59761  76890.000000  0        -14569.401      -2959323.837       6408396.503
10 0 59761  76920.000000  0        -99200.373      -3149486.188       6316286.836
10 0 59761  76950.000000  0       -184555.251      -3336092.188       6217743.655
10 0 59761  76980.000000  0       -270531.737      -3518949.620       6112866.167
10 0 59761  77010.000000  0       -357026.038      -3697870.413       6001760.029
10 0 59761  77040.000000  0       -443932.987      -3872670.847       5884537.251
10 0 59761  77070.000000  0       -531146.165      -4043171.738       5761316.094
10 0 59761  77100.000000  0       -618558.029      -4209198.631       5632220.963
10 0 59761  77130.000000  0       -706060.041      -4370581.988       5497382.294
10 0 59761  77160.000000  0       -793542.800      -4527157.368       5356936.428
10 0 59761  77190.000000  0       -880896.178      -4678765.606       5211025.481
10 0 59761  77220.000000  0       -968009.456      -4825252.984       5059797.209
10 0 59761  77250.000000  0      -1054771.459      -4966471.397       4903404.863
10 0 59761  77280.000000  0      -1141070.698      -5102278.513       4742007.038
10 0 59761  77310.000000  0      -1226795.509      -5232537.928       4575767.514
10 0 59761  77340.000000  0      -1311834.192      -5357119.310       4404855.096
10 0 59761  77370.000000  0      -1396075.156      -5475898.542       4229443.443
10 0 59761  77400.000000  0      -1479407.059      -5588757.853       4049710.898
10 0 59761  77430.000000  0      -1561718.954      -5695585.947       3865840.302
10 0 59761  77460.000000  0      -1642900.432      -5796278.117       3678018.814
10 0 59761  77490.000000  0      -1722841.768      -5890736.362       3486437.723
10 0 59761  77520.000000  0      -1801434.061      -5978869.485       3291292.249
10 0 59761  77550.000000  0      -1878569.384      -6060593.198       3092781.351
10 0 59761  77580.000000  0      -1954140.924      -6135830.206       2891107.520
10 0 59761  77610.000000  0      -2028043.129      -6204510.294       2686476.570
10 0 59761  77640.000000  0      -2100171.850      -6266570.398       2479097.425
10 0 59761  77670.000000  0      -2170424.480      -6321954.668       2269181.901
10 0 59761  77700.000000  0      -2238700.096      -6370614.528       2056944.485
10 0 59761  77730.000000  0      -2304899.593      -6412508.722       1842602.114
10 0 59761  77760.000000  0      -2368925.823      -6447603.356       1626373.944
10 0 59761  77790.000000  0      -2430683.728      -6475871.928       1408481.123
10 0 59761  77820.000000  0      -2490080.474      -6497295.353       1189146.557
10 0 59761  77850.000000  0      -2547025.580      -6511861.975        968594.675
10 0 59761  77880.000000  0      -2601431.046      -6519567.571        747051.192
10 0 59761  77910.000000  0      -2653211.476      -6520415.351        524742.872
10 0 59761  77940.000000  0      -2702284.203      -6514415.941        301897.286
10 0 59761  77970.000000  0      -2748569.403      -6501587.365         78742.570
10 0 59761  78000.000000  0      -2791990.213      -6481955.015       -144492.813
10 0 59761  78030.000000  0      -2832472.846      -6455551.611       -367580.318
10 0 59761  78060.000000  0      -2869946.694      -6422417.150       -590291.563
10 0 59761  78090.000000  0      -2904344.435      -6382598.858       -812398.566
10 0 59761  78120.000000  0      -2935602.137      -6336151.115      -1033673.992
10 0 59761  78150.000000  0      -2963659.349      -6283135.390      -1253891.390
10 0 59761  78180.000000  0      -2988459.198      -6223620.150      -1472825.435
10 0 59761  78210.000000  0      -3009948.475      -6157680.781      -1690252.165
10 0 59761  78240.000000  0      -3028077.720      -6085399.480      -1905949.218
10 0 59761  78270.000000  0      -3042801.301      -6006865.157      -2119696.068
10 0 59761  78300.000000  0      -3054077.487      -5922173.313      -2331274.256
10 0 59761  78330.000000  0      -3061868.516      -5831425.927      -2540467.622
10 0 59761  78360.000000  0      -3066140.664      -5734731.317      -2747062.530
10 0 59761  78390.000000  0      -3066864.296      -5632204.009      -2950848.091
10 0 59761  78420.000000  0      -3064013.926      -5523964.595      -3151616.381
10 0 59761  78450.000000  0      -3057568.261      -5410139.574      -3349162.658
10 0 59761  78480.000000  0      -3047510.248      -5290861.207      -3543285.571
10 0 59761  78510.000000  0      -3033827.106      -5166267.345      -3733787.365
10 0 59761  78540.000000  0      -3016510.366      -5036501.269      -3920474.086
10 0 59761  78570.000000  0      -2995555.890      -4901711.513      -4103155.771
10 0 59761  78600.000000  0      -2970963.902      -4762051.687      -4281646.647
10 0 59761  78630.000000  0      -2942738.999      -4617680.294      -4455765.315
10 0 59761  78660.000000  0      -2910890.162      -4468760.543      -4625334.933
10 0 59761  78690.000000  0      -2875430.768      -4315460.154      -4790183.390
10 0 59761  78720.000000  0      -2836378.587      -4157951.165      -4950143.478
10 0 59761  78750.000000  0      -2793755.776      -3996409.730      -5105053.058
10 0 59761  78780.000000  0      -2747588.878      -3831015.914      -5254755.220
10 0 59761  78810.000000  0      -2697908.799      -3661953.489      -5399098.434
10 0 59761  78840.000000  0      -2644750.795      -3489409.721      -5537936.700
10 0 59761  78870.000000  0      -2588154.441      -3313575.155      -5671129.690
10 0 59761  78900.000000  0      -2528163.608      -3134643.404      -5798542.880
10 0 59761  78930.000000  0      -2464826.422      -2952810.924      -5920047.683
10 0 59761  78960.000000  0      -2398195.224      -2768276.804      -6035521.569
10 0 59761  78990.000000  0      -2328326.527      -2581242.534      -6144848.185
10 0 59761  79020.000000  0      -2255280.961      -2391911.784      -6247917.461
10 0 59761  79050.000000  0      -2179123.220      -2200490.180      -6344625.714
10 0 59761  79080.000000  0      -2099922.002      -2007185.078      -6434875.740
10 0 59761  79110.000000  0      -2017749.944      -1812205.339      -6518576.905
10 0 59761  79140.000000  0      -1932683.553      -1615761.098      -6595645.230
10 0 59761  79170.000000  0      -1844803.136      -1418063.543      -6666003.461
99
